LANDSAT 9               
1 49260U 21088A   23255.09829817  .00000593  00000+0  14169-3 0  9991
2 49260  98.2232 323.9229 0001387  95.8606 264.2750 14.57104410104044
